{
  "type": "FeatureCollection",
  "features": [
    {
      "type": "Feature",
      "properties": {
        "norad_id": 34492,
        "name": "IRIDIUM 33 DEB",
        "group": "iridium-33-debris",
        "lat": 26.493964714513794,
        "lon": 152.11066425837726,
        "alt_km": 775.9919521177544,
        "timestamp": "2025-12-14T14:39:29.754258+00:00",
        "meta_object_name": "IRIDIUM 33 DEB",
        "meta_object_id": "1997-051GH",
        "meta_epoch": "2025-12-13T22:54:26.366112",
        "meta_mean_motion": 14.25767221,
        "meta_eccentricity": 0.01890212,
        "meta_inclination": 86.4717,
        "meta_ra_of_asc_node": 334.1381,
        "meta_arg_of_pericenter": 234.2097,
        "meta_mean_anomaly": 154.7783,
        "meta_ephemeris_type": 0,
        "meta_classification_type": "U",
        "meta_norad_cat_id": 34492,
        "meta_element_set_no": 999,
        "meta_rev_at_epoch": 85076,
        "meta_bstar": 0.0043128894,
        "meta_mean_motion_dot": 0.00012385,
        "meta_mean_motion_ddot": 0,
        "tle_line1": "1 34492U 97051GH  25347.95447183  .00012385  00000+0  43129-2 0  9995",
        "tle_line2": "2 34492  86.4717 334.1381 0189021 234.2097 154.7783 14.25767221850766"
      },
      "geometry": {
        "type": "Point",
        "coordinates": [
          152.11066425837726,
          26.493964714513794
        ]
      }
    },
    {
      "type": "Feature",
      "properties": {
        "norad_id": 34497,
        "name": "IRIDIUM 33 DEB",
        "group": "iridium-33-debris",
        "lat": 45.916850961517255,
        "lon": 55.45621696516606,
        "alt_km": 779.0264172042907,
        "timestamp": "2025-12-14T14:39:29.754268+00:00",
        "meta_object_name": "IRIDIUM 33 DEB",
        "meta_object_id": "1997-051GN",
        "meta_epoch": "2025-12-13T15:30:28.114272",
        "meta_mean_motion": 14.27457632,
        "meta_eccentricity": 0.00787124,
        "meta_inclination": 86.2778,
        "meta_ra_of_asc_node": 52.0141,
        "meta_arg_of_pericenter": 336.6092,
        "meta_mean_anomaly": 154.8087,
        "meta_ephemeris_type": 0,
        "meta_classification_type": "U",
        "meta_norad_cat_id": 34497,
        "meta_element_set_no": 999,
        "meta_rev_at_epoch": 86896,
        "meta_bstar": 0.0008195509,
        "meta_mean_motion_dot": 2.096e-05,
        "meta_mean_motion_ddot": 0,
        "tle_line1": "1 34497U 97051GN  25347.64615873  .00002096  00000+0  81955-3 0  9997",
        "tle_line2": "2 34497  86.2778  52.0141 0078712 336.6092 154.8087 14.27457632868965"
      },
      "geometry": {
        "type": "Point",
        "coordinates": [
          55.45621696516606,
          45.916850961517255
        ]
      }
    },
    {
      "type": "Feature",
      "properties": {
        "norad_id": 34508,
        "name": "IRIDIUM 33 DEB",
        "group": "iridium-33-debris",
        "lat": -81.36196253759135,
        "lon": 77.14610925623514,
        "alt_km": 787.661606555942,
        "timestamp": "2025-12-14T14:39:29.754292+00:00",
        "meta_object_name": "IRIDIUM 33 DEB",
        "meta_object_id": "1997-051GZ",
        "meta_epoch": "2025-12-13T19:00:33.641856",
        "meta_mean_motion": 14.38440506,
        "meta_eccentricity": 0.00661246,
        "meta_inclination": 86.3696,
        "meta_ra_of_asc_node": 102.1967,
        "meta_arg_of_pericenter": 169.6342,
        "meta_mean_anomaly": 190.6238,
        "meta_ephemeris_type": 0,
        "meta_classification_type": "U",
        "meta_norad_cat_id": 34508,
        "meta_element_set_no": 999,
        "meta_rev_at_epoch": 87324,
        "meta_bstar": 0.0016313944,
        "meta_mean_motion_dot": 5.125e-05,
        "meta_mean_motion_ddot": 0,
        "tle_line1": "1 34508U 97051GZ  25347.79205604  .00005125  00000+0  16314-2 0  9995",
        "tle_line2": "2 34508  86.3696 102.1967 0066124 169.6342 190.6238 14.38440506873244"
      },
      "geometry": {
        "type": "Point",
        "coordinates": [
          77.14610925623514,
          -81.36196253759135
        ]
      }
    },
    {
      "type": "Feature",
      "properties": {
        "norad_id": 34521,
        "name": "IRIDIUM 33 DEB",
        "group": "iridium-33-debris",
        "lat": -81.84898517350396,
        "lon": -124.04795375058815,
        "alt_km": 689.0651160980315,
        "timestamp": "2025-12-14T14:39:29.754304+00:00",
        "meta_object_name": "IRIDIUM 33 DEB",
        "meta_object_id": "1997-051HN",
        "meta_epoch": "2025-12-13T21:03:01.574784",
        "meta_mean_motion": 14.63381841,
        "meta_eccentricity": 0.00016684,
        "meta_inclination": 86.3805,
        "meta_ra_of_asc_node": 30.0474,
        "meta_arg_of_pericenter": 207.7885,
        "meta_mean_anomaly": 152.3238,
        "meta_ephemeris_type": 0,
        "meta_classification_type": "U",
        "meta_norad_cat_id": 34521,
        "meta_element_set_no": 999,
        "meta_rev_at_epoch": 88489,
        "meta_bstar": 0.0010009577,
        "meta_mean_motion_dot": 5.194e-05,
        "meta_mean_motion_ddot": 0,
        "tle_line1": "1 34521U 97051HN  25347.87710156  .00005194  00000+0  10010-2 0  9995",
        "tle_line2": "2 34521  86.3805  30.0474 0001668 207.7885 152.3238 14.63381841884893"
      },
      "geometry": {
        "type": "Point",
        "coordinates": [
          -124.04795375058815,
          -81.84898517350396
        ]
      }
    },
    {
      "type": "Feature",
      "properties": {
        "norad_id": 34525,
        "name": "IRIDIUM 33 DEB",
        "group": "iridium-33-debris",
        "lat": -55.931340226740964,
        "lon": 40.66352951075028,
        "alt_km": 759.96873692596,
        "timestamp": "2025-12-14T14:39:29.754316+00:00",
        "meta_object_name": "IRIDIUM 33 DEB",
        "meta_object_id": "1997-051HS",
        "meta_epoch": "2025-12-13T16:11:18.522816",
        "meta_mean_motion": 14.42909183,
        "meta_eccentricity": 0.00066446,
        "meta_inclination": 86.3731,
        "meta_ra_of_asc_node": 46.4448,
        "meta_arg_of_pericenter": 93.1632,
        "meta_mean_anomaly": 30.6633,
        "meta_ephemeris_type": 0,
        "meta_classification_type": "U",
        "meta_norad_cat_id": 34525,
        "meta_element_set_no": 999,
        "meta_rev_at_epoch": 88101,
        "meta_bstar": 0.00049523387,
        "meta_mean_motion_dot": 1.674e-05,
        "meta_mean_motion_ddot": 0,
        "tle_line1": "1 34525U 97051HS  25347.67451994  .00001674  00000+0  49523-3 0  9990",
        "tle_line2": "2 34525  86.3731  46.4448 0006644  93.1632  30.6633 14.42909183881013"
      },
      "geometry": {
        "type": "Point",
        "coordinates": [
          40.66352951075028,
          -55.931340226740964
        ]
      }
    },
    {
      "type": "Feature",
      "properties": {
        "norad_id": 34529,
        "name": "IRIDIUM 33 DEB",
        "group": "iridium-33-debris",
        "lat": -3.5233399644362433,
        "lon": -145.16114079152925,
        "alt_km": 756.5782622194902,
        "timestamp": "2025-12-14T14:39:29.754326+00:00",
        "meta_object_name": "IRIDIUM 33 DEB",
        "meta_object_id": "1997-051HW",
        "meta_epoch": "2025-12-13T04:28:09.694848",
        "meta_mean_motion": 14.40616367,
        "meta_eccentricity": 0.00048664,
        "meta_inclination": 86.3641,
        "meta_ra_of_asc_node": 35.2216,
        "meta_arg_of_pericenter": 175.3623,
        "meta_mean_anomaly": 184.7623,
        "meta_ephemeris_type": 0,
        "meta_classification_type": "U",
        "meta_norad_cat_id": 34529,
        "meta_element_set_no": 999,
        "meta_rev_at_epoch": 88148,
        "meta_bstar": 0.00016827646,
        "meta_mean_motion_dot": 5.56e-06,
        "meta_mean_motion_ddot": 0,
        "tle_line1": "1 34529U 97051HW  25347.18622332  .00000556  00000+0  16828-3 0  9996",
        "tle_line2": "2 34529  86.3641  35.2216 0004866 175.3623 184.7623 14.40616367881481"
      },
      "geometry": {
        "type": "Point",
        "coordinates": [
          -145.16114079152925,
          -3.5233399644362433
        ]
      }
    },
    {
      "type": "Feature",
      "properties": {
        "norad_id": 34538,
        "name": "IRIDIUM 33 DEB",
        "group": "iridium-33-debris",
        "lat": 34.38428262781043,
        "lon": 7.290378209159265,
        "alt_km": 740.5384589689293,
        "timestamp": "2025-12-14T14:39:29.754337+00:00",
        "meta_object_name": "IRIDIUM 33 DEB",
        "meta_object_id": "1997-051JF",
        "meta_epoch": "2025-12-12T19:29:58.055136",
        "meta_mean_motion": 14.42648871,
        "meta_eccentricity": 0.0032777,
        "meta_inclination": 86.2773,
        "meta_ra_of_asc_node": 5.524,
        "meta_arg_of_pericenter": 327.8022,
        "meta_mean_anomaly": 92.8362,
        "meta_ephemeris_type": 0,
        "meta_classification_type": "U",
        "meta_norad_cat_id": 34538,
        "meta_element_set_no": 999,
        "meta_rev_at_epoch": 87757,
        "meta_bstar": 0.0014020322,
        "meta_mean_motion_dot": 4.708e-05,
        "meta_mean_motion_ddot": 0,
        "tle_line1": "1 34538U 97051JF  25346.81247749  .00004708  00000+0  14020-2 0  9994",
        "tle_line2": "2 34538  86.2773   5.5240 0032777 327.8022  92.8362 14.42648871877573"
      },
      "geometry": {
        "type": "Point",
        "coordinates": [
          7.290378209159265,
          34.38428262781043
        ]
      }
    }
  ]
}